1 56323U 23058G   25355.48458125  .00000761  00000+0  63810-4 0  9999
2 56323  97.6065 353.5932 0001649  92.8007 267.3406 15.01264568146030
